CCSDS_OMM_VERS = 2.0
CREATION_DATE  = 
ORIGINATOR     = 

OBJECT_NAME    = KUIPER-00210
OBJECT_ID      = 2025-301P
CENTER_NAME    = EARTH
REF_FRAME      = TEME
TIME_SYSTEM    = UTC
MEAN_ELEMENT_THEORY = SGP/SGP4

EPOCH          = 2025-12-26T06:03:08.258688
MEAN_MOTION    = 15.34182203
ECCENTRICITY   = .00105902
INCLINATION    = 51.8604
RA_OF_ASC_NODE = 60.0669
ARG_OF_PERICENTER = 150.5650
MEAN_ANOMALY   = 209.5934

EPHEMERIS_TYPE = 0
CLASSIFICATION_TYPE = U
NORAD_CAT_ID   = 67146
ELEMENT_SET_NO = 999
REV_AT_EPOCH   = 261
BSTAR          = .83974478E-3
MEAN_MOTION_DOT = .27975E-3
MEAN_MOTION_DDOT = 0

CCSDS_OMM_VERS = 2.0
CREATION_DATE  = 
ORIGINATOR     = 

OBJECT_NAME    = KUIPER-00221
OBJECT_ID      = 2025-301Q
CENTER_NAME    = EARTH
REF_FRAME      = TEME
TIME_SYSTEM    = UTC
MEAN_ELEMENT_THEORY = SGP/SGP4

EPOCH          = 2025-12-26T05:48:20.067552
MEAN_MOTION    = 15.35746838
ECCENTRICITY   = .00048528
INCLINATION    = 51.8728
RA_OF_ASC_NODE = 60.0002
ARG_OF_PERICENTER = 114.5931
MEAN_ANOMALY   = 245.5561

EPHEMERIS_TYPE = 0
CLASSIFICATION_TYPE = U
NORAD_CAT_ID   = 67147
ELEMENT_SET_NO = 999
REV_AT_EPOCH   = 244
BSTAR          = .10525439E-2
MEAN_MOTION_DOT = .36969E-3
MEAN_MOTION_DDOT = 0

CCSDS_OMM_VERS = 2.0
CREATION_DATE  = 
ORIGINATOR     = 

OBJECT_NAME    = KUIPER-00232
OBJECT_ID      = 2025-301R
CENTER_NAME    = EARTH
REF_FRAME      = TEME
TIME_SYSTEM    = UTC
MEAN_ELEMENT_THEORY = SGP/SGP4

EPOCH          = 2025-12-26T05:38:56.447520
MEAN_MOTION    = 15.36711464
ECCENTRICITY   = .00016144
INCLINATION    = 51.8747
RA_OF_ASC_NODE = 59.9527
ARG_OF_PERICENTER = 50.4264
MEAN_ANOMALY   = 309.6865

EPHEMERIS_TYPE = 0
CLASSIFICATION_TYPE = U
NORAD_CAT_ID   = 67148
ELEMENT_SET_NO = 999
REV_AT_EPOCH   = 244
BSTAR          = .96056868E-3
MEAN_MOTION_DOT = .34755E-3
MEAN_MOTION_DDOT = 0

CCSDS_OMM_VERS = 2.0
CREATION_DATE  = 
ORIGINATOR     = 

OBJECT_NAME    = KUIPER-00241
OBJECT_ID      = 2025-301S
CENTER_NAME    = EARTH
REF_FRAME      = TEME
TIME_SYSTEM    = UTC
MEAN_ELEMENT_THEORY = SGP/SGP4

EPOCH          = 2025-12-26T05:43:22.960416
MEAN_MOTION    = 15.36265873
ECCENTRICITY   = .00028152
INCLINATION    = 51.8742
RA_OF_ASC_NODE = 59.9742
ARG_OF_PERICENTER = 80.0264
MEAN_ANOMALY   = 280.1040

EPHEMERIS_TYPE = 0
CLASSIFICATION_TYPE = U
NORAD_CAT_ID   = 67149
ELEMENT_SET_NO = 999
REV_AT_EPOCH   = 277
BSTAR          = .11783928E-2
MEAN_MOTION_DOT = .42156E-3
MEAN_MOTION_DDOT = 0

CCSDS_OMM_VERS = 2.0
CREATION_DATE  = 
ORIGINATOR     = 

OBJECT_NAME    = KUIPER-00245
OBJECT_ID      = 2025-301T
CENTER_NAME    = EARTH
REF_FRAME      = TEME
TIME_SYSTEM    = UTC
MEAN_ELEMENT_THEORY = SGP/SGP4

EPOCH          = 2025-12-26T05:49:11.600832
MEAN_MOTION    = 15.35655450
ECCENTRICITY   = .00046155
INCLINATION    = 51.8743
RA_OF_ASC_NODE = 60.0028
ARG_OF_PERICENTER = 123.4828
MEAN_ANOMALY   = 236.6599

EPHEMERIS_TYPE = 0
CLASSIFICATION_TYPE = U
NORAD_CAT_ID   = 67150
ELEMENT_SET_NO = 999
REV_AT_EPOCH   = 244
BSTAR          = .68679542E-3
MEAN_MOTION_DOT = .23875E-3
MEAN_MOTION_DDOT = 0

CCSDS_OMM_VERS = 2.0
CREATION_DATE  = 
ORIGINATOR     = 

OBJECT_NAME    = KUIPER-00246
OBJECT_ID      = 2025-301U
CENTER_NAME    = EARTH
REF_FRAME      = TEME
TIME_SYSTEM    = UTC
MEAN_ELEMENT_THEORY = SGP/SGP4

EPOCH          = 2025-12-26T04:12:26.637120
MEAN_MOTION    = 15.35920452
ECCENTRICITY   = .00038168
INCLINATION    = 51.8739
RA_OF_ASC_NODE = 60.3003
ARG_OF_PERICENTER = 113.2152
MEAN_ANOMALY   = 246.9236

EPHEMERIS_TYPE = 0
CLASSIFICATION_TYPE = U
NORAD_CAT_ID   = 67151
ELEMENT_SET_NO = 999
REV_AT_EPOCH   = 245
BSTAR          = .56569431E-3
MEAN_MOTION_DOT = .19754E-3
MEAN_MOTION_DDOT = 0

CCSDS_OMM_VERS = 2.0
CREATION_DATE  = 
ORIGINATOR     = 

OBJECT_NAME    = KUIPER-00247
OBJECT_ID      = 2025-301V
CENTER_NAME    = EARTH
REF_FRAME      = TEME
TIME_SYSTEM    = UTC
MEAN_ELEMENT_THEORY = SGP/SGP4

EPOCH          = 2025-12-26T06:04:48.587232
MEAN_MOTION    = 15.33992545
ECCENTRICITY   = .0011209
INCLINATION    = 51.8631
RA_OF_ASC_NODE = 60.0753
ARG_OF_PERICENTER = 153.8257
MEAN_ANOMALY   = 206.3297

EPHEMERIS_TYPE = 0
CLASSIFICATION_TYPE = U
NORAD_CAT_ID   = 67152
ELEMENT_SET_NO = 999
REV_AT_EPOCH   = 244
BSTAR          = .60502719E-3
MEAN_MOTION_DOT = .19909E-3
MEAN_MOTION_DDOT = 0

CCSDS_OMM_VERS = 2.0
CREATION_DATE  = 
ORIGINATOR     = 

OBJECT_NAME    = KUIPER-00248
OBJECT_ID      = 2025-301W
CENTER_NAME    = EARTH
REF_FRAME      = TEME
TIME_SYSTEM    = UTC
MEAN_ELEMENT_THEORY = SGP/SGP4

EPOCH          = 2025-12-26T05:58:33.638016
MEAN_MOTION    = 15.34678671
ECCENTRICITY   = .00086017
INCLINATION    = 51.8675
RA_OF_ASC_NODE = 60.0478
ARG_OF_PERICENTER = 141.0231
MEAN_ANOMALY   = 219.1376

EPHEMERIS_TYPE = 0
CLASSIFICATION_TYPE = U
NORAD_CAT_ID   = 67153
ELEMENT_SET_NO = 999
REV_AT_EPOCH   = 261
BSTAR          = .11839491E-2
MEAN_MOTION_DOT = .40275E-3
MEAN_MOTION_DDOT = 0

CCSDS_OMM_VERS = 2.0
CREATION_DATE  = 
ORIGINATOR     = 

OBJECT_NAME    = KUIPER-00249
OBJECT_ID      = 2025-301X
CENTER_NAME    = EARTH
REF_FRAME      = TEME
TIME_SYSTEM    = UTC
MEAN_ELEMENT_THEORY = SGP/SGP4

EPOCH          = 2025-12-26T05:56:36.570336
MEAN_MOTION    = 15.34800191
ECCENTRICITY   = .00081241
INCLINATION    = 51.8648
RA_OF_ASC_NODE = 60.0390
ARG_OF_PERICENTER = 138.5819
MEAN_ANOMALY   = 221.5784

EPHEMERIS_TYPE = 0
CLASSIFICATION_TYPE = U
NORAD_CAT_ID   = 67154
ELEMENT_SET_NO = 999
REV_AT_EPOCH   = 244
BSTAR          = .64316628E-3
MEAN_MOTION_DOT = .21732E-3
MEAN_MOTION_DDOT = 0

CCSDS_OMM_VERS = 2.0
CREATION_DATE  = 
ORIGINATOR     = 

OBJECT_NAME    = KUIPER-00250
OBJECT_ID      = 2025-301Y
CENTER_NAME    = EARTH
REF_FRAME      = TEME
TIME_SYSTEM    = UTC
MEAN_ELEMENT_THEORY = SGP/SGP4

EPOCH          = 2025-12-26T05:52:06.673152
MEAN_MOTION    = 15.35346832
ECCENTRICITY   = .00061488
INCLINATION    = 51.8713
RA_OF_ASC_NODE = 60.0166
ARG_OF_PERICENTER = 129.3318
MEAN_ANOMALY   = 230.8213

EPHEMERIS_TYPE = 0
CLASSIFICATION_TYPE = U
NORAD_CAT_ID   = 67155
ELEMENT_SET_NO = 999
REV_AT_EPOCH   = 247
BSTAR          = .63511832E-3
MEAN_MOTION_DOT = .21829E-3
MEAN_MOTION_DDOT = 0

CCSDS_OMM_VERS = 2.0
CREATION_DATE  = 
ORIGINATOR     = 

OBJECT_NAME    = KUIPER-00251
OBJECT_ID      = 2025-301Z
CENTER_NAME    = EARTH
REF_FRAME      = TEME
TIME_SYSTEM    = UTC
MEAN_ELEMENT_THEORY = SGP/SGP4

EPOCH          = 2025-12-26T05:57:43.151904
MEAN_MOTION    = 15.34770603
ECCENTRICITY   = .00087754
INCLINATION    = 51.8664
RA_OF_ASC_NODE = 60.0437
ARG_OF_PERICENTER = 137.1689
MEAN_ANOMALY   = 222.9982

EPHEMERIS_TYPE = 0
CLASSIFICATION_TYPE = U
NORAD_CAT_ID   = 67156
ELEMENT_SET_NO = 999
REV_AT_EPOCH   = 263
BSTAR          = .64316717E-3
MEAN_MOTION_DOT = .21715E-3
MEAN_MOTION_DDOT = 0

CCSDS_OMM_VERS = 2.0
CREATION_DATE  = 
ORIGINATOR     = 

OBJECT_NAME    = KUIPER-00252
OBJECT_ID      = 2025-301AA
CENTER_NAME    = EARTH
REF_FRAME      = TEME
TIME_SYSTEM    = UTC
MEAN_ELEMENT_THEORY = SGP/SGP4

EPOCH          = 2025-12-26T06:01:42.793536
MEAN_MOTION    = 15.34318883
ECCENTRICITY   = .00092535
INCLINATION    = 51.8656
RA_OF_ASC_NODE = 60.0626
ARG_OF_PERICENTER = 146.2330
MEAN_ANOMALY   = 213.9247

EPHEMERIS_TYPE = 0
CLASSIFICATION_TYPE = U
NORAD_CAT_ID   = 67157
ELEMENT_SET_NO = 999
REV_AT_EPOCH   = 244
BSTAR          = .12046416E-3
MEAN_MOTION_DOT = .3688E-4
MEAN_MOTION_DDOT = 0

