KUIPER-00210            
1 67146U 25301P   25360.25217892  .00027975  00000+0  83974-3 0  9990
2 67146  51.8604  60.0669 0010590 150.5650 209.5934 15.34182203  2614
KUIPER-00221            
1 67147U 25301Q   25360.24189893  .00036969  00000+0  10525-2 0  9993
2 67147  51.8728  60.0002 0004852 114.5931 245.5561 15.35746838  2447
KUIPER-00232            
1 67148U 25301R   25360.23537555  .00034755  00000+0  96057-3 0  9991
2 67148  51.8747  59.9527 0001614  50.4264 309.6865 15.36711464  2445
KUIPER-00241            
1 67149U 25301S   25360.23846019  .00042156  00000+0  11784-2 0  9997
2 67149  51.8742  59.9742 0002815  80.0264 280.1040 15.36265873  2775
KUIPER-00245            
1 67150U 25301T   25360.24249538  .00023875  00000+0  68680-3 0  9998
2 67150  51.8743  60.0028 0004615 123.4828 236.6599 15.35655450  2448
KUIPER-00246            
1 67151U 25301U   25360.17530830  .00019754  00000+0  56569-3 0  9993
2 67151  51.8739  60.3003 0003816 113.2152 246.9236 15.35920452  2459
KUIPER-00247            
1 67152U 25301V   25360.25334013  .00019909  00000+0  60503-3 0  9993
2 67152  51.8631  60.0753 0011209 153.8257 206.3297 15.33992545  2447
KUIPER-00248            
1 67153U 25301W   25360.24900044  .00040275  00000+0  11839-2 0  9993
2 67153  51.8675  60.0478 0008601 141.0231 219.1376 15.34678671  2614
KUIPER-00249            
1 67154U 25301X   25360.24764549  .00021732  00000+0  64317-3 0  9999
2 67154  51.8648  60.0390 0008124 138.5819 221.5784 15.34800191  2446
KUIPER-00250            
1 67155U 25301Y   25360.24452168  .00021829  00000+0  63512-3 0  9994
2 67155  51.8713  60.0166 0006148 129.3318 230.8213 15.35346832  2478
KUIPER-00251            
1 67156U 25301Z   25360.24841611  .00021715  00000+0  64317-3 0  9998
2 67156  51.8664  60.0437 0008775 137.1689 222.9982 15.34770603  2630
KUIPER-00252            
1 67157U 25301AA  25360.25118974  .00003688  00000+0  12046-3 0  9990
2 67157  51.8656  60.0626 0009253 146.2330 213.9247 15.34318883  2449
